# From MPC106342
C/1995 O1 (Hale-Bopp),e,89.1002,283.1271,130.4661,177.9688,0.0004151,0.99496076,0.0000,03/29.7489/1997,2000,g -2.0,4.0
# From NK 1615
P/1996 R2 (Lagerkvist),e,2.6006,40.0165,333.3335,3.774881,0.1343845,0.31431889,128.6052,09/26.0/2021,2000,g 11.5,4.0
# From MPC 30063
P/1997 B1 (Kobayashi),e,12.3395,328.8812,183.3287,8.577972,0.0392308,0.76030502,352.7919,09/26.0/2021,2000,g 15.0,2.0
# From MPC 75703
P/1998 VS24 (LINEAR),e,5.0263,159.0374,244.6076,4.527622,0.1023055,0.24247062,137.7665,09/26.0/2021,2000,g 13.0,2.0
# From NK 731
P/1999 RO28 (LONEOS),e,7.5673,137.8860,231.2643,3.426648,0.1553817,0.67232256,127.8226,09/26.0/2021,2000,g 20.0,2.0
# From MPC 75704
P/1999 XN120 (Catalina),e,5.0296,285.2966,161.7954,4.179046,0.1153688,0.21021464,181.0988,09/26.0/2021,2000,g 13.5,2.0
# From NK 744
P/2000 R2 (LINEAR),e,11.6869,160.2860,176.5506,3.466861,0.1526860,0.53162068,126.9432,09/26.0/2021,2000,g 18.0,4.0
# From MPC 43019
P/2001 H5 (NEAT),e,8.3667,328.6825,224.8336,6.097536,0.0654595,0.59831913,142.0795,09/26.0/2021,2000,g 12.0,4.0
# From MPC 75704
P/2001 Q6 (NEAT),e,56.9100,22.1664,42.9278,7.954683,0.0439309,0.82304552,321.0907,09/26.0/2021,2000,g 13.5,4.0
# From MPC 47727
P/2002 EJ57 (LINEAR),e,4.9762,330.3260,167.3450,6.469090,0.0599017,0.59232951,71.6548,09/26.0/2021,2000,g 12.5,4.0
# From MPC109588
P/2002 T6 (NEAT-LINEAR),e,10.8395,206.2160,219.6638,7.691688,0.0462031,0.56098033,312.4212,09/26.0/2021,2000,g 10.5,4.0
# From MPC 75007
C/2002 VQ94 (LINEAR),e,70.6283,35.0744,100.1001,184.7859,0.0003924,0.96305494,2.2446,09/26.0/2021,2000,g  9.5,2.0
# From MPC 50354
P/2003 F2 (NEAT),e,11.6069,359.0215,192.1591,6.501397,0.0594558,0.54215719,40.6255,09/26.0/2021,2000,g 16.5,2.0
# From MPC 50139
P/2003 QX29 (NEAT),e,11.3904,264.5584,37.5324,8.025069,0.0433542,0.47296042,298.8891,09/26.0/2021,2000,g  8.5,4.0
# From MPC105235
P/2003 T12 (SOHO),e,11.0206,174.5795,219.7504,2.585859,0.2370264,0.76983588,120.1879,09/26.0/2021,2000,g 17.0,4.0
# From MPC 82312
P/2004 A1 (LONEOS),e,10.5516,124.8490,21.2494,7.963091,0.0438613,0.30936839,274.7866,09/26.0/2021,2000,g  6.5,4.0
# From MPC 54558
P/2004 DO29 (Spacewatch-LINEAR),e,14.5325,147.3716,40.6426,7.287071,0.0501042,0.44110298,310.7728,09/26.0/2021,2000,g 13.5,2.0
# From MPC 54823
P/2004 FY140 (LINEAR),e,2.1348,326.7627,242.3549,4.904050,0.0907553,0.16811018,204.9240,09/26.0/2021,2000,g 12.5,2.0
# From MPC 53304
P/2004 R3 (LINEAR-NEAT),e,12.7942,305.4334,37.9335,4.785151,0.0941587,0.25869194,0.2944,09/26.0/2021,2000,g 14.5,4.0
# From MPC 55521
P/2004 V3 (Siding Spring),e,50.4424,356.1269,322.3801,7.138671,0.0516747,0.44629668,319.3136,09/26.0/2021,2000,g 11.5,4.0
# From MPC 75705
P/2004 V5 (LINEAR-Hill),e,19.3408,47.7880,87.6686,7.981547,0.0437093,0.44371779,265.9506,09/26.0/2021,2000,g  8.0,4.0
# From MPC 75705
P/2004 V5 (LINEAR-Hill),e,19.3408,47.7880,87.6686,7.981547,0.0437093,0.44371779,265.9506,09/26.0/2021,2000,g  8.0,4.0
# From MPC 54164
P/2005 E1 (Tubbiolo),e,4.2638,335.5671,194.0234,7.042118,0.0527411,0.37515471,321.3222,09/26.0/2021,2000,g 10.0,4.0
# From MPC 54823
P/2005 GF8 (LONEOS),e,1.1883,314.7019,284.6401,5.821671,0.0701670,0.51723829,51.1791,09/26.0/2021,2000,g 11.5,4.0
# From MPC 79019
P/2005 J1 (McNaught),e,31.7573,268.8159,338.9610,3.570753,0.1460711,0.56947903,157.7045,09/26.0/2021,2000,g 16.5,4.0
# From MPC 74246
P/2005 L1 (McNaught),e,7.7385,138.2481,149.7367,3.976760,0.1242825,0.20975651,355.3042,09/26.0/2021,2000,g  9.5,4.0
# From MPC 75706
P/2005 S2 (Skiff),e,3.1357,161.2148,229.1887,8.013182,0.0434507,0.19769302,244.0446,09/26.0/2021,2000,g  7.5,4.0
# From MPC 75706
P/2005 SB216 (LONEOS),e,24.0926,1.1710,83.3347,7.134663,0.0517183,0.46388673,278.5611,09/26.0/2021,2000,g 12.0,2.0
# From MPC 55717
P/2005 T2 (Christensen),e,8.2913,260.1605,58.8569,3.847206,0.1306129,0.41634797,69.9497,09/26.0/2021,2000,g 14.5,4.0
# From MPC 73461
P/2005 T3 (Read),e,6.2237,27.7072,6.7497,7.584423,0.0471868,0.17464913,275.7126,09/26.0/2021,2000,g  9.0,4.0
# From MPC 73461
P/2005 T4 (SWAN),e,160.2273,25.7976,41.7033,9.361224,0.0344116,0.92971511,200.9122,09/26.0/2021,2000,g 15.0,4.0
# From MPC 75706
P/2005 T5 (Broughton),e,21.3652,57.0005,304.5915,7.287984,0.0500948,0.55245145,292.0131,09/26.0/2021,2000,g 11.0,4.0
# From MPC 75706
P/2005 Y2 (McNaught),e,19.0495,94.3510,193.8523,6.371197,0.0612876,0.46988691,20.9577,09/26.0/2021,2000,g  9.0,4.0
# From MPC 56954
P/2006 F4 (Spacewatch),e,12.4326,183.8236,30.8675,3.519621,0.1492658,0.34057835,117.2559,09/26.0/2021,2000,g 15.0,4.0
# From MPC 75707
P/2006 HR30 (Siding Spring),e,31.8330,309.8948,117.2984,7.810983,0.0451487,0.84247288,243.8802,09/26.0/2021,2000,g 11.0,4.0
# From MPC 75707
P/2007 A2 (Christensen),e,26.4877,300.9082,186.7211,6.330060,0.0618860,0.55788344,333.4407,09/26.0/2021,2000,g 13.5,4.0
# From MPC 75707
P/2007 C2 (Catalina),e,8.6272,275.4599,180.0819,6.992883,0.0532991,0.47119395,272.5177,09/26.0/2021,2000,g 10.0,4.0
# From MPC 84315
C/2007 D1 (LINEAR),e,41.5017,171.2227,339.9674,1346,0.0000200,0.99344959,0.0000,06/07.8330/2007,2000,g  3.5,4.0
# From MPC 82314
P/2007 K2 (Gibbs),e,7.6303,188.6396,347.4200,7.267585,0.0503059,0.68299042,263.2932,09/26.0/2021,2000,g 14.0,4.0
# From MPC 60925
P/2007 Q2 (Gilmore),e,10.2026,172.1577,162.7902,5.653418,0.0733225,0.67012518,22.2179,09/26.0/2021,2000,g 16.0,4.0
# From MPC 75708
P/2007 R4 (Garradd),e,20.2098,87.1997,282.5857,5.935144,0.0681643,0.67017143,354.9762,09/26.0/2021,2000,g 14.5,4.0
# From MPC 73462
P/2007 S1 (Zhao),e,5.9641,141.3700,245.4987,3.818914,0.1320670,0.33964896,310.2317,09/26.0/2021,2000,g 13.0,4.0
# From MPC 61994
P/2007 T2 (Kowalski),e,9.7506,3.3756,359.6425,3.046674,0.1853383,0.78550627,214.9638,09/26.0/2021,2000,g 18.5,4.0
# From MPC 75709
P/2008 L2 (Hill),e,25.8650,218.0116,141.2343,6.028133,0.0665932,0.61329029,320.5723,09/26.0/2021,2000,g 12.5,4.0
# From MPC 64114
P/2008 O3 (Boattini),e,32.2873,47.5799,341.1129,8.219872,0.0418222,0.69572920,203.7217,09/26.0/2021,2000,g 13.0,4.0
# From MPC 66204
P/2008 WZ96 (LINEAR),e,7.1118,56.4458,341.9370,3.486776,0.1513798,0.46979090,4.5724,09/26.0/2021,2000,g 13.5,4.0
# From MPC 75710
P/2008 Y3 (McNaught),e,38.7695,262.8128,238.1660,8.047482,0.0431732,0.44544078,201.3106,09/26.0/2021,2000,g  8.5,4.0
# From MPC 75710
P/2009 B1 (Boattini),e,22.2221,297.0875,128.8738,6.737452,0.0563586,0.63501693,261.9403,09/26.0/2021,2000,g 13.0,4.0
# From MPC 66466
C/2009 G1 (STEREO),e,108.7030,120.4569,175.4460,445.1854,0.0001049,0.99744378,0.0000,04/16.4653/2009,2000,g  9.0,4.0
# From MPC 75710
P/2009 O3 (Hill),e,16.2796,183.6952,154.4400,7.768407,0.0455204,0.68786328,205.1878,09/26.0/2021,2000,g 12.5,4.0
# From MPC 68902
P/2009 Q5 (McNaught),e,40.9882,160.2795,209.0396,7.434515,0.0486211,0.60930347,214.0318,09/26.0/2021,2000,g 10.0,4.0
# From MPC112389
P/2009 T2 (La Sagra),e,27.5753,215.8412,216.3637,7.722355,0.0459282,0.76559491,197.0624,09/26.0/2021,2000,g 14.0,4.0
# From MPC105235
P/2009 WX51 (Catalina),e,9.5938,31.6537,118.1370,3.081726,0.1821852,0.74015456,57.1461,09/26.0/2021,2000,g 19.0,2.0
# From MPC 74247
P/2009 Y2 (Kowalski),e,29.9390,262.0278,172.1367,6.550277,0.0587915,0.63617927,248.6081,09/26.0/2021,2000,g 13.0,4.0
# From MPC 75711
P/2010 A3 (Hill),e,14.8300,63.8061,42.1677,6.080038,0.0657423,0.73353005,276.9323,09/26.0/2021,2000,g 14.0,4.0
# From MPC 75008
P/2010 C1 (Scotti),e,9.1281,141.8859,3.6081,7.103928,0.0520543,0.25901145,225.8229,09/26.0/2021,2000,g  9.5,4.0
# From MPC 75008
P/2010 D2 (WISE),e,57.0861,319.8906,120.0096,6.717976,0.0566039,0.45108875,240.2957,09/26.0/2021,2000,g 16.0,4.0
# From MPC 75009
P/2010 E2 (Jarnac),e,15.3911,177.8222,8.3522,8.639677,0.0388113,0.71969862,162.9183,09/26.0/2021,2000,g 14.0,4.0
# From MPC 72851
P/2010 H2 (Vales),e,14.2750,64.1940,128.0820,3.833274,0.1313256,0.19597901,194.1846,09/26.0/2021,2000,g  6.0,4.0
# From MPC 70361
P/2010 H3 (SOHO),e,23.0687,77.0885,26.1570,3.037365,0.1861910,0.98536159,0.0000,02/07.9521/2021,2000,g 20.0,2.0
# From MPC 73463
P/2010 H4 (Scotti),e,2.3182,44.7351,179.5027,6.593564,0.0582135,0.26685435,239.8374,09/26.0/2021,2000,g 10.5,4.0
# From MPC 74637
P/2010 H5 (Scotti),e,14.0609,24.8017,175.1024,7.164271,0.0513980,0.15293851,215.6632,09/26.0/2021,2000,g 13.0,2.0
# From MPC 98558
P/2010 J3 (McMillan),e,13.2826,106.4268,157.6012,8.974714,0.0366584,0.72661568,148.3150,09/26.0/2021,2000,g 11.0,4.0
# From MPC 84315
P/2010 JC81 (WISE),e,38.7720,30.8538,12.4249,8.108584,0.0426861,0.77724477,162.6851,09/26.0/2021,2000,g  9.0,4.0
# From MPC 74248
P/2010 T2 (PANSTARRS),e,7.8920,58.7980,353.2090,5.537908,0.0756285,0.32173693,291.3903,09/26.0/2021,2000,g 11.5,4.0
# From MPC 98558
P/2010 TO20 (LINEAR-Grauer),e,2.4789,43.2921,266.9475,5.831524,0.0699892,0.05524191,330.4963,09/26.0/2021,2000,g  9.0,4.0
# From MPC 82316
P/2010 U1 (Boattini),e,8.2158,280.7024,86.0182,6.507937,0.0593662,0.24866136,252.8564,09/26.0/2021,2000,g  9.5,4.0
# From MPEC 2021-R75
C/2010 U3 (Boattini),e,55.5342,43.0134,88.0467,2364,0.0000086,0.99642752,0.0000,02/25.2931/2019,2000,g  1.0,4.0
# From MPC 79021
P/2010 UH55 (Spacewatch),e,8.0403,232.9332,225.1636,6.653570,0.0574278,0.56336113,219.5755,09/26.0/2021,2000,g 11.0,4.0
# From MPC 75009
P/2010 WK (LINEAR),e,11.4014,11.3293,40.9643,5.761917,0.0712613,0.69009666,286.6134,09/26.0/2021,2000,g 14.5,2.0
# From MPC 84021
P/2011 C2 (Gibbs),e,10.8850,12.1241,160.8252,7.413657,0.0488265,0.26886519,173.8418,09/26.0/2021,2000,g  9.0,4.0
# From MPC 79866
P/2011 FR143 (Lemmon),e,15.9788,190.9505,350.0597,6.859985,0.0548554,0.45055533,212.0185,09/26.0/2021,2000,g 14.0,2.0
# From MPC 82317
P/2011 JB15 (Spacewatch-Boattini),e,19.1477,153.5799,111.0683,7.359076,0.0493707,0.31724390,174.5040,09/26.0/2021,2000,g  9.0,4.0
# From MPC 87913
P/2011 N1 (ASH),e,35.7334,77.5900,330.3403,6.248052,0.0631084,0.54428278,215.6093,09/26.0/2021,2000,g 11.5,4.0
# From MPC 75714
P/2011 NO1 (Elenin),e,15.2475,295.8065,263.7731,5.526128,0.0758705,0.77458474,296.1068,09/26.0/2021,2000,g 15.0,4.0
# From MPC 82318
